[{"OBJECT_NAME":"HORS 2","OBJECT_ID":"2023-091AG","EPOCH":"2026-03-09T22:11:34.810944","MEAN_MOTION":15.2928008,"ECCENTRICITY":0.00098173,"INCLINATION":97.5195,"RA_OF_ASC_NODE":134.7443,"ARG_OF_PERICENTER":79.3164,"MEAN_ANOMALY":280.9181,"EPHEMERIS_TYPE":0,"CLASSIFICATION_TYPE":"U","NORAD_CAT_ID":57196,"ELEMENT_SET_NO":999,"REV_AT_EPOCH":14934,"BSTAR":0.00059338338,"MEAN_MOTION_DOT":0.00016821,"MEAN_MOTION_DDOT":0},{"OBJECT_NAME":"STARLINK-32644","OBJECT_ID":"2024-224N","EPOCH":"2026-03-09T06:33:32.739840","MEAN_MOTION":15.27569015,"ECCENTRICITY":6.11e-5,"INCLINATION":42.9931,"RA_OF_ASC_NODE":160.6816,"ARG_OF_PERICENTER":345.6563,"MEAN_ANOMALY":14.4271,"EPHEMERIS_TYPE":0,"CLASSIFICATION_TYPE":"U","NORAD_CAT_ID":62151,"ELEMENT_SET_NO":999,"REV_AT_EPOCH":7241,"BSTAR":0.0012999957,"MEAN_MOTION_DOT":0.00035672,"MEAN_MOTION_DDOT":0}]
